start=new Date('2022-09-06T00:00:00.000Z').valueOf();
sats=[{"MEAN_MOTION_DOT":"0.00030194","MEAN_MOTION_DDOT":"0.0000000000000","APOAPSIS":"512.830","MEAN_MOTION":"15.18083233","ECCENTRICITY":"0.00017330","RCS_SIZE":"LARGE","CLASSIFICATION_TYPE":"U","MEAN_ELEMENT_THEORY":"SGP4","COUNTRY_CODE":"US","OBJECT_TYPE":"PAYLOAD","INCLINATION":"52.9981","BSTAR":"0.00147260000000","TLE_LINE2":"2 45086  52.9981 222.3503 0001733  66.4522 293.6653 15.18083233144002","ARG_OF_PERICENTER":"66.4522","SITE":"AFETR","FILE":"3559490","PERIAPSIS":"510.442","ELEMENT_SET_NO":"999","EPOCH":"2022-09-05T08:47:34.361952","REF_FRAME":"TEME","OBJECT_ID":"2020-006AU","EPHEMERIS_TYPE":"0","SEMIMAJOR_AXIS":"6889.771","OBJECT_NAME":"STARLINK-1181","TIME_SYSTEM":"UTC","LAUNCH_DATE":"2020-01-29","CENTER_NAME":"EARTH","GP_ID":"211800469","DECAY_DATE":null,"TLE_LINE1":"1 45086U 20006AU  22248.36636993  .00030194  00000-0  14726-2 0  9993","RA_OF_ASC_NODE":"222.3503","REV_AT_EPOCH":"14400","NORAD_CAT_ID":"45086","PERIOD":"94.856","MEAN_ANOMALY":"293.6653"},{"SITE":"AFETR","PERIAPSIS":"546.188","FILE":"3559490","EPOCH":"2022-09-05T10:51:07.275456","ELEMENT_SET_NO":"999","ARG_OF_PERICENTER":"83.2653","INCLINATION":"53.0538","OBJECT_TYPE":"PAYLOAD","TLE_LINE2":"2 45087  53.0538 238.3132 0001463  83.2653 276.8503 15.06404182143913","BSTAR":"0.00002113200000","MEAN_MOTION_DDOT":"0.0000000000000","MEAN_MOTION_DOT":"0.00000033","APOAPSIS":"548.214","MEAN_MOTION":"15.06404182","ECCENTRICITY":"0.00014630","MEAN_ELEMENT_THEORY":"SGP4","CLASSIFICATION_TYPE":"U","RCS_SIZE":"LARGE","COUNTRY_CODE":"US","NORAD_CAT_ID":"45087","PERIOD":"95.592","MEAN_ANOMALY":"276.8503","REV_AT_EPOCH":"14391","TIME_SYSTEM":"UTC","LAUNCH_DATE":"2020-01-29","GP_ID":"211800712","CENTER_NAME":"EARTH","DECAY_DATE":null,"RA_OF_ASC_NODE":"238.3132","TLE_LINE1":"1 45087U 20006AV  22248.45216754  .00000033  00000-0  21132-4 0  9993","EPHEMERIS_TYPE":"0","REF_FRAME":"TEME","OBJECT_ID":"2020-006AV","SEMIMAJOR_AXIS":"6925.336","OBJECT_NAME":"STARLINK-1185"},{"REV_AT_EPOCH":"14389","NORAD_CAT_ID":"45088","PERIOD":"95.592","MEAN_ANOMALY":"281.3876","EPHEMERIS_TYPE":"0","REF_FRAME":"TEME","OBJECT_ID":"2020-006AW","SEMIMAJOR_AXIS":"6925.353","OBJECT_NAME":"STARLINK-1183","LAUNCH_DATE":"2020-01-29","TIME_SYSTEM":"UTC","GP_ID":"211799468","CENTER_NAME":"EARTH","DECAY_DATE":null,"RA_OF_ASC_NODE":"238.8042","TLE_LINE1":"1 45088U 20006AW  22248.34159490 -.00000799  00000-0 -34716-4 0  9998","ARG_OF_PERICENTER":"78.7285","SITE":"AFETR","PERIAPSIS":"546.161","FILE":"3559490","ELEMENT_SET_NO":"999","EPOCH":"2022-09-05T08:11:53.799360","MEAN_MOTION_DDOT":"0.0000000000000","MEAN_MOTION_DOT":"-0.00000799","APOAPSIS":"548.275","ECCENTRICITY":"0.00015260","MEAN_MOTION":"15.06398521","MEAN_ELEMENT_THEORY":"SGP4","CLASSIFICATION_TYPE":"U","RCS_SIZE":"LARGE","COUNTRY_CODE":"US","INCLINATION":"53.0534","OBJECT_TYPE":"PAYLOAD","BSTAR":"-0.00003471600000","TLE_LINE2":"2 45088  53.0534 238.8042 0001526  78.7285 281.3876 15.06398521143895"},{"CENTER_NAME":"EARTH","GP_ID":"211800217","LAUNCH_DATE":"2020-01-29","TIME_SYSTEM":"UTC","TLE_LINE1":"1 45089U 20006AX  22248.28262838  .00000751  00000-0  69330-4 0  9999","RA_OF_ASC_NODE":"239.1693","DECAY_DATE":null,"SEMIMAJOR_AXIS":"6925.360","OBJECT_ID":"2020-006AX","REF_FRAME":"TEME","EPHEMERIS_TYPE":"0","OBJECT_NAME":"STARLINK-1136","NORAD_CAT_ID":"45089","MEAN_ANOMALY":"277.1165","PERIOD":"95.592","REV_AT_EPOCH":"14389","OBJECT_TYPE":"PAYLOAD","INCLINATION":"53.0543","TLE_LINE2":"2 45089  53.0543 239.1693 0001536  82.9998 277.1165 15.06396294143890","BSTAR":"0.00006933000000","APOAPSIS":"548.289","ECCENTRICITY":"0.00015360","MEAN_MOTION":"15.06396294","MEAN_MOTION_DOT":"0.00000751","MEAN_MOTION_DDOT":"0.0000000000000","COUNTRY_CODE":"US","CLASSIFICATION_TYPE":"U","RCS_SIZE":"LARGE","MEAN_ELEMENT_THEORY":"SGP4","SITE":"AFETR","ELEMENT_SET_NO":"999","EPOCH":"2022-09-05T06:46:59.092032","FILE":"3559490","PERIAPSIS":"546.161","ARG_OF_PERICENTER":"82.9998"},{"RA_OF_ASC_NODE":"236.4990","TLE_LINE1":"1 45090U 20006AY  22248.85667168  .00000706  00000-0  66263-4 0  9991","DECAY_DATE":null,"GP_ID":"211830502","CENTER_NAME":"EARTH","TIME_SYSTEM":"UTC","LAUNCH_DATE":"2020-01-29","OBJECT_NAME":"STARLINK-1176","SEMIMAJOR_AXIS":"6925.329","EPHEMERIS_TYPE":"0","REF_FRAME":"TEME","OBJECT_ID":"2020-006AY","MEAN_ANOMALY":"282.5110","PERIOD":"95.592","NORAD_CAT_ID":"45090","REV_AT_EPOCH":"14397","TLE_LINE2":"2 45090  53.0545 236.4990 0001535  77.6051 282.5110 15.06406499143972","BSTAR":"0.00006626300000","INCLINATION":"53.0545","OBJECT_TYPE":"PAYLOAD","COUNTRY_CODE":"US","MEAN_ELEMENT_THEORY":"SGP4","CLASSIFICATION_TYPE":"U","RCS_SIZE":"LARGE","ECCENTRICITY":"0.00015350","APOAPSIS":"548.257","MEAN_MOTION":"15.06406499","MEAN_MOTION_DDOT":"0.0000000000000","MEAN_MOTION_DOT":"0.00000706","ELEMENT_SET_NO":"999","EPOCH":"2022-09-05T20:33:36.433152","PERIAPSIS":"546.131","FILE":"3559723","SITE":"AFETR","ARG_OF_PERICENTER":"77.6051"},{"DECAY_DATE":null,"TLE_LINE1":"1 45092U 20006BA  22248.36739169  .00002978  00000-0  21866-3 0  9992","RA_OF_ASC_NODE":"238.7098","TIME_SYSTEM":"UTC","LAUNCH_DATE":"2020-01-29","CENTER_NAME":"EARTH","GP_ID":"211801210","OBJECT_NAME":"STARLINK-1137","OBJECT_ID":"2020-006BA","REF_FRAME":"TEME","EPHEMERIS_TYPE":"0","SEMIMAJOR_AXIS":"6925.320","PERIOD":"95.592","MEAN_ANOMALY":"286.2747","NORAD_CAT_ID":"45092","REV_AT_EPOCH":"14389","BSTAR":"0.00021866000000","TLE_LINE2":"2 45092  53.0531 238.7098 0001483  73.8405 286.2747 15.06409258143890","OBJECT_TYPE":"PAYLOAD","INCLINATION":"53.0531","RCS_SIZE":"LARGE","CLASSIFICATION_TYPE":"U","MEAN_ELEMENT_THEORY":"SGP4","COUNTRY_CODE":"US","MEAN_MOTION_DOT":"0.00002978","MEAN_MOTION_DDOT":"0.0000000000000","ECCENTRICITY":"0.00014830","APOAPSIS":"548.212","MEAN_MOTION":"15.06409258","PERIAPSIS":"546.158","FILE":"3559490","ELEMENT_SET_NO":"999","EPOCH":"2022-09-05T08:49:02.642016","SITE":"AFETR","ARG_OF_PERICENTER":"73.8405"},{"EPHEMERIS_TYPE":"0","REF_FRAME":"TEME","OBJECT_ID":"2020-006BB","SEMIMAJOR_AXIS":"6925.326","OBJECT_NAME":"STARLINK-1142","TIME_SYSTEM":"UTC","LAUNCH_DATE":"2020-01-29","GP_ID":"211799968","CENTER_NAME":"EARTH","DECAY_DATE":null,"RA_OF_ASC_NODE":"239.0218","TLE_LINE1":"1 45093U 20006BB  22248.29735868  .00001196  00000-0  99150-4 0  9990","REV_AT_EPOCH":"14388","NORAD_CAT_ID":"45093","PERIOD":"95.592","MEAN_ANOMALY":"282.5117","MEAN_MOTION_DDOT":"0.0000000000000","MEAN_MOTION_DOT":"0.00001196","APOAPSIS":"548.235","MEAN_MOTION":"15.06407450","ECCENTRICITY":"0.00015080","MEAN_ELEMENT_THEORY":"SGP4","RCS_SIZE":"LARGE","CLASSIFICATION_TYPE":"U","COUNTRY_CODE":"US","INCLINATION":"53.0527","OBJECT_TYPE":"PAYLOAD","BSTAR":"0.00009915000000","TLE_LINE2":"2 45093  53.0527 239.0218 0001508  77.6040 282.5117 15.06407450143880","ARG_OF_PERICENTER":"77.6040","SITE":"AFETR","PERIAPSIS":"546.146","FILE":"3559490","ELEMENT_SET_NO":"999","EPOCH":"2022-09-05T07:08:11.789952"},{"SEMIMAJOR_AXIS":"6925.325","REF_FRAME":"TEME","OBJECT_ID":"2020-006BC","EPHEMERIS_TYPE":"0","OBJECT_NAME":"STARLINK-1146","CENTER_NAME":"EARTH","GP_ID":"211799718","TIME_SYSTEM":"UTC","LAUNCH_DATE":"2020-01-29","TLE_LINE1":"1 45094U 20006BC  22248.37750096  .00000208  00000-0  32875-4 0  9994","RA_OF_ASC_NODE":"238.6442","DECAY_DATE":null,"REV_AT_EPOCH":"14390","NORAD_CAT_ID":"45094","MEAN_ANOMALY":"291.7874","PERIOD":"95.592","ECCENTRICITY":"0.00016850","APOAPSIS":"548.357","MEAN_MOTION":"15.06407721","MEAN_MOTION_DOT":"0.00000208","MEAN_MOTION_DDOT":"0.0000000000000","COUNTRY_CODE":"US","RCS_SIZE":"LARGE","CLASSIFICATION_TYPE":"U","MEAN_ELEMENT_THEORY":"SGP4","OBJECT_TYPE":"PAYLOAD","INCLINATION":"53.0538","TLE_LINE2":"2 45094  53.0538 238.6442 0001685  68.3295 291.7874 15.06407721143908","BSTAR":"0.00003287500000","ARG_OF_PERICENTER":"68.3295","SITE":"AFETR","ELEMENT_SET_NO":"999","EPOCH":"2022-09-05T09:03:36.082944","FILE":"3559490","PERIAPSIS":"546.023"},{"FILE":"3559490","PERIAPSIS":"546.128","ELEMENT_SET_NO":"999","EPOCH":"2022-09-05T09:08:54.346848","SITE":"AFETR","ARG_OF_PERICENTER":"67.1141","TLE_LINE2":"2 45095  53.0549 238.6118 0001530  67.1141 293.0009 15.06408622143903","BSTAR":"0.00005401200000","INCLINATION":"53.0549","OBJECT_TYPE":"PAYLOAD","MEAN_ELEMENT_THEORY":"SGP4","CLASSIFICATION_TYPE":"U","RCS_SIZE":"LARGE","COUNTRY_CODE":"US","MEAN_MOTION_DDOT":"0.0000000000000","MEAN_MOTION_DOT":"0.00000523","APOAPSIS":"548.247","ECCENTRICITY":"0.00015300","MEAN_MOTION":"15.06408622","PERIOD":"95.592","MEAN_ANOMALY":"293.0009","NORAD_CAT_ID":"45095","REV_AT_EPOCH":"14390","DECAY_DATE":null,"RA_OF_ASC_NODE":"238.6118","TLE_LINE1":"1 45095U 20006BD  22248.38118457  .00000523  00000-0  54012-4 0  9992","LAUNCH_DATE":"2020-01-29","TIME_SYSTEM":"UTC","GP_ID":"211800470","CENTER_NAME":"EARTH","OBJECT_NAME":"STARLINK-1147","EPHEMERIS_TYPE":"0","REF_FRAME":"TEME","OBJECT_ID":"2020-006BD","SEMIMAJOR_AXIS":"6925.322"},{"INCLINATION":"53.0530","OBJECT_TYPE":"PAYLOAD","TLE_LINE2":"2 45096  53.0530 238.6531 0001476  74.1805 285.9347 15.06408943143896","BSTAR":"0.00003273900000","MEAN_MOTION_DDOT":"0.0000000000000","MEAN_MOTION_DOT":"0.00000206","APOAPSIS":"548.208","MEAN_MOTION":"15.06408943","ECCENTRICITY":"0.00014760","MEAN_ELEMENT_THEORY":"SGP4","RCS_SIZE":"LARGE","CLASSIFICATION_TYPE":"U","COUNTRY_CODE":"US","SITE":"AFETR","PERIAPSIS":"546.164","FILE":"3559490","ELEMENT_SET_NO":"999","EPOCH":"2022-09-05T08:59:39.332256","ARG_OF_PERICENTER":"74.1805","TIME_SYSTEM":"UTC","LAUNCH_DATE":"2020-01-29","GP_ID":"211800713","CENTER_NAME":"EARTH","DECAY_DATE":null,"RA_OF_ASC_NODE":"238.6531","TLE_LINE1":"1 45096U 20006BE  22248.37476079  .00000206  00000-0  32739-4 0  9999","EPHEMERIS_TYPE":"0","REF_FRAME":"TEME","OBJECT_ID":"2020-006BE","SEMIMAJOR_AXIS":"6925.321","OBJECT_NAME":"STARLINK-1152","NORAD_CAT_ID":"45096","PERIOD":"95.592","MEAN_ANOMALY":"285.9347","REV_AT_EPOCH":"14389"}];
